[{"OBJECT_NAME":"LDPE-2","OBJECT_ID":"2022-144A","EPOCH":"2026-03-05T23:03:10.917792","MEAN_MOTION":1.00557404,"ECCENTRICITY":4.255e-5,"INCLINATION":5.392,"RA_OF_ASC_NODE":64.294,"ARG_OF_PERICENTER":237.1217,"MEAN_ANOMALY":312.8981,"EPHEMERIS_TYPE":0,"CLASSIFICATION_TYPE":"U","NORAD_CAT_ID":54219,"ELEMENT_SET_NO":999,"REV_AT_EPOCH":1080,"BSTAR":0,"MEAN_MOTION_DOT":-3.59e-6,"MEAN_MOTION_DDOT":0},{"OBJECT_NAME":"EUTELSAT HOTBIRD 13G","OBJECT_ID":"2022-146A","EPOCH":"2026-03-06T05:27:46.531296","MEAN_MOTION":1.00272265,"ECCENTRICITY":0.00019239,"INCLINATION":0.0448,"RA_OF_ASC_NODE":226.9997,"ARG_OF_PERICENTER":310.9978,"MEAN_ANOMALY":80.8849,"EPHEMERIS_TYPE":0,"CLASSIFICATION_TYPE":"U","NORAD_CAT_ID":54225,"ELEMENT_SET_NO":999,"REV_AT_EPOCH":643,"BSTAR":0,"MEAN_MOTION_DOT":8.2e-7,"MEAN_MOTION_DDOT":0},{"OBJECT_NAME":"ZHONGXING-19","OBJECT_ID":"2022-148A","EPOCH":"2026-03-06T06:10:34.926816","MEAN_MOTION":1.00271755,"ECCENTRICITY":0.00025782,"INCLINATION":0.0237,"RA_OF_ASC_NODE":99.8467,"ARG_OF_PERICENTER":245.3926,"MEAN_ANOMALY":74.5877,"EPHEMERIS_TYPE":0,"CLASSIFICATION_TYPE":"U","NORAD_CAT_ID":54230,"ELEMENT_SET_NO":999,"REV_AT_EPOCH":1234,"BSTAR":0,"MEAN_MOTION_DOT":-8.6e-7,"MEAN_MOTION_DDOT":0},{"OBJECT_NAME":"GALAXY 31 (G-31)","OBJECT_ID":"2022-153A","EPOCH":"2026-03-05T07:46:38.500608","MEAN_MOTION":1.00272772,"ECCENTRICITY":0.000149,"INCLINATION":0.0114,"RA_OF_ASC_NODE":186.2478,"ARG_OF_PERICENTER":168.2279,"MEAN_ANOMALY":164.2342,"EPHEMERIS_TYPE":0,"CLASSIFICATION_TYPE":"U","NORAD_CAT_ID":54243,"ELEMENT_SET_NO":999,"REV_AT_EPOCH":609,"BSTAR":0,"MEAN_MOTION_DOT":5.0e-8,"MEAN_MOTION_DDOT":0},{"OBJECT_NAME":"GALAXY 32 (G-32)","OBJECT_ID":"2022-153B","EPOCH":"2026-03-04T04:27:38.803392","MEAN_MOTION":1.00267915,"ECCENTRICITY":0.00030041,"INCLINATION":0.0222,"RA_OF_ASC_NODE":132.7365,"ARG_OF_PERICENTER":225.3208,"MEAN_ANOMALY":139.8078,"EPHEMERIS_TYPE":0,"CLASSIFICATION_TYPE":"U","NORAD_CAT_ID":54244,"ELEMENT_SET_NO":999,"REV_AT_EPOCH":1209,"BSTAR":0,"MEAN_MOTION_DOT":0,"MEAN_MOTION_DDOT":0},{"OBJECT_NAME":"EUTELSAT 10B","OBJECT_ID":"2022-157A","EPOCH":"2026-03-05T19:10:41.865888","MEAN_MOTION":1.00272542,"ECCENTRICITY":0.00013544,"INCLINATION":0.0578,"RA_OF_ASC_NODE":102.8111,"ARG_OF_PERICENTER":340.6012,"MEAN_ANOMALY":17.7426,"EPHEMERIS_TYPE":0,"CLASSIFICATION_TYPE":"U","NORAD_CAT_ID":54259,"ELEMENT_SET_NO":999,"REV_AT_EPOCH":1199,"BSTAR":0,"MEAN_MOTION_DOT":6.2e-7,"MEAN_MOTION_DDOT":0},{"OBJECT_NAME":"GALAXY 35 (G-35)","OBJECT_ID":"2022-170A","EPOCH":"2026-03-06T04:24:38.565216","MEAN_MOTION":1.00270967,"ECCENTRICITY":0.00020218,"INCLINATION":0.0105,"RA_OF_ASC_NODE":186.7077,"ARG_OF_PERICENTER":161.1903,"MEAN_ANOMALY":149.0565,"EPHEMERIS_TYPE":0,"CLASSIFICATION_TYPE":"U","NORAD_CAT_ID":54741,"ELEMENT_SET_NO":999,"REV_AT_EPOCH":1186,"BSTAR":0,"MEAN_MOTION_DOT":-1.67e-6,"MEAN_MOTION_DDOT":0},{"OBJECT_NAME":"GALAXY 36 (G-36)","OBJECT_ID":"2022-170B","EPOCH":"2026-03-06T06:41:16.981728","MEAN_MOTION":1.00272437,"ECCENTRICITY":0.0002101,"INCLINATION":0.0187,"RA_OF_ASC_NODE":136.7972,"ARG_OF_PERICENTER":262.6147,"MEAN_ANOMALY":135.8959,"EPHEMERIS_TYPE":0,"CLASSIFICATION_TYPE":"U","NORAD_CAT_ID":54742,"ELEMENT_SET_NO":999,"REV_AT_EPOCH":1174,"BSTAR":0,"MEAN_MOTION_DOT":-1.9e-6,"MEAN_MOTION_DDOT":0},{"OBJECT_NAME":"METEOSAT-12 (MTG-I1)","OBJECT_ID":"2022-170C","EPOCH":"2026-03-06T03:41:11.751072","MEAN_MOTION":1.0026987,"ECCENTRICITY":0.00020504,"INCLINATION":0.703,"RA_OF_ASC_NODE":21.6583,"ARG_OF_PERICENTER":287.1766,"MEAN_ANOMALY":270.0306,"EPHEMERIS_TYPE":0,"CLASSIFICATION_TYPE":"U","NORAD_CAT_ID":54743,"ELEMENT_SET_NO":999,"REV_AT_EPOCH":1194,"BSTAR":0,"MEAN_MOTION_DOT":-1.3e-7,"MEAN_MOTION_DDOT":0},{"OBJECT_NAME":"SHIJIAN-23 (SJ-23)","OBJECT_ID":"2023-002A","EPOCH":"2026-03-05T18:28:47.568864","MEAN_MOTION":1.0048773,"ECCENTRICITY":0.0005836,"INCLINATION":3.4519,"RA_OF_ASC_NODE":79.6379,"ARG_OF_PERICENTER":262.4648,"MEAN_ANOMALY":229.1645,"EPHEMERIS_TYPE":0,"CLASSIFICATION_TYPE":"U","NORAD_CAT_ID":55131,"ELEMENT_SET_NO":999,"REV_AT_EPOCH":1147,"BSTAR":0,"MEAN_MOTION_DOT":-3.14e-6,"MEAN_MOTION_DDOT":0},{"OBJECT_NAME":"APSTAR-6E","OBJECT_ID":"2023-005A","EPOCH":"2026-03-06T06:02:13.228800","MEAN_MOTION":1.00271073,"ECCENTRICITY":0.00012497,"INCLINATION":0.0487,"RA_OF_ASC_NODE":248.388,"ARG_OF_PERICENTER":61.7535,"MEAN_ANOMALY":78.3801,"EPHEMERIS_TYPE":0,"CLASSIFICATION_TYPE":"U","NORAD_CAT_ID":55239,"ELEMENT_SET_NO":999,"REV_AT_EPOCH":1765,"BSTAR":0,"MEAN_MOTION_DOT":-3.23e-6,"MEAN_MOTION_DDOT":0},{"OBJECT_NAME":"USA 342","OBJECT_ID":"2023-008A","EPOCH":"2026-03-03T19:19:23.105856","MEAN_MOTION":1.00270437,"ECCENTRICITY":4.21e-5,"INCLINATION":0.019,"RA_OF_ASC_NODE":154.74,"ARG_OF_PERICENTER":181.7368,"MEAN_ANOMALY":138.7753,"EPHEMERIS_TYPE":0,"CLASSIFICATION_TYPE":"U","NORAD_CAT_ID":55263,"ELEMENT_SET_NO":999,"REV_AT_EPOCH":1146,"BSTAR":0,"MEAN_MOTION_DOT":0,"MEAN_MOTION_DDOT":0},{"OBJECT_NAME":"ELEKTRO-L 4","OBJECT_ID":"2023-016A","EPOCH":"2026-03-06T02:01:38.783424","MEAN_MOTION":1.002721,"ECCENTRICITY":0.00017718,"INCLINATION":0.0979,"RA_OF_ASC_NODE":294.292,"ARG_OF_PERICENTER":352.9001,"MEAN_ANOMALY":72.7607,"EPHEMERIS_TYPE":0,"CLASSIFICATION_TYPE":"U","NORAD_CAT_ID":55506,"ELEMENT_SET_NO":999,"REV_AT_EPOCH":1129,"BSTAR":0,"MEAN_MOTION_DOT":-6.5e-7,"MEAN_MOTION_DDOT":0},{"OBJECT_NAME":"AMAZONAS NEXUS","OBJECT_ID":"2023-017A","EPOCH":"2026-03-04T03:36:14.719968","MEAN_MOTION":1.00275833,"ECCENTRICITY":0.00044502,"INCLINATION":0.0414,"RA_OF_ASC_NODE":44.7348,"ARG_OF_PERICENTER":317.0979,"MEAN_ANOMALY":153.1232,"EPHEMERIS_TYPE":0,"CLASSIFICATION_TYPE":"U","NORAD_CAT_ID":55508,"ELEMENT_SET_NO":999,"REV_AT_EPOCH":599,"BSTAR":0,"MEAN_MOTION_DOT":-2.95e-6,"MEAN_MOTION_DDOT":0},{"OBJECT_NAME":"ZHONGXING-26","OBJECT_ID":"2023-023A","EPOCH":"2026-03-06T07:42:26.119296","MEAN_MOTION":1.00273528,"ECCENTRICITY":0.00035311,"INCLINATION":0.0658,"RA_OF_ASC_NODE":72.6881,"ARG_OF_PERICENTER":326.8421,"MEAN_ANOMALY":5.2012,"EPHEMERIS_TYPE":0,"CLASSIFICATION_TYPE":"U","NORAD_CAT_ID":55686,"ELEMENT_SET_NO":999,"REV_AT_EPOCH":1119,"BSTAR":0,"MEAN_MOTION_DOT":-3.58e-6,"MEAN_MOTION_DDOT":0},{"OBJECT_NAME":"LUCH-5X (OLYMP-K 2)","OBJECT_ID":"2023-031A","EPOCH":"2026-03-05T17:21:29.950848","MEAN_MOTION":1.00272965,"ECCENTRICITY":0.0001959,"INCLINATION":0.0269,"RA_OF_ASC_NODE":87.8443,"ARG_OF_PERICENTER":121.1189,"MEAN_ANOMALY":276.8518,"EPHEMERIS_TYPE":0,"CLASSIFICATION_TYPE":"U","NORAD_CAT_ID":55841,"ELEMENT_SET_NO":999,"REV_AT_EPOCH":1090,"BSTAR":0,"MEAN_MOTION_DOT":2.6e-7,"MEAN_MOTION_DDOT":0},{"OBJECT_NAME":"GAOFEN-13 02","OBJECT_ID":"2023-036A","EPOCH":"2026-03-06T05:05:38.666112","MEAN_MOTION":1.00275077,"ECCENTRICITY":0.00052715,"INCLINATION":1.0317,"RA_OF_ASC_NODE":348.0044,"ARG_OF_PERICENTER":334.3797,"MEAN_ANOMALY":66.135,"EPHEMERIS_TYPE":0,"CLASSIFICATION_TYPE":"U","NORAD_CAT_ID":55912,"ELEMENT_SET_NO":999,"REV_AT_EPOCH":1106,"BSTAR":0,"MEAN_MOTION_DOT":-2.23e-6,"MEAN_MOTION_DDOT":0}]
